ONEWEB-0207             
1 48242U 21031AJ  25190.95262388 -.00000396  00000+0 -11016-2 0  9997
2 48242  87.9041 357.7780 0001608  91.4284 268.7030 13.14502495203332
ONEWEB-0208             
1 48243U 21031AK  25191.16275710  .00000003  00000+0 -25714-4 0  9991
2 48243  87.9043 357.7509 0001905  86.9403 273.1945 13.14503177203373
ONEWEB-0200             
1 48244U 21031AL  25191.20240130 -.00000014  00000+0 -72989-4 0  9994
2 48244  87.9039 357.7347 0001838  89.4002 270.7339 13.14503496203315
ONEWEB-0217             
1 48245U 21031AM  25190.98990774  .00000201  00000+0  50827-3 0  9997
2 48245  87.9040 357.7615 0002004  85.5482 274.5877 13.14502682203237
ONEWEB-0211             
1 48767U 21045A   25190.85776330 -.00000052  00000+0 -17138-3 0  9991
2 48767  87.9069 327.3953 0002222  96.4600 263.6783 13.16082189199416
ONEWEB-0223             
1 48768U 21045B   25190.85922590 -.00000123  00000+0 -35984-3 0  9991
2 48768  87.9072 327.4402 0002381  97.7416 262.3985 13.15549175199395
ONEWEB-0230             
1 48769U 21045C   25191.43916208  .00000138  00000+0  33277-3 0  9993
2 48769  87.9054 327.3638 0001848 102.2859 257.8478 13.15547025200847
ONEWEB-0237             
1 48770U 21045D   25191.42808191  .00000058  00000+0  11934-3 0  9992
2 48770  87.9077 327.3473 0002236  98.9133 261.2250 13.15549176200586
